{
    "links": {
        "self": "http://www.neowsapp.com/rest/v1/neo/3402613?api_key=iIulBulltgU6a56xZRHN4H3l9WmuAYTsLGpBGhQ2"
    },
    "id": "3402613",
    "neo_reference_id": "3402613",
    "name": "(2008 CL116)",
    "designation": "2008 CL116",
    "nasa_jpl_url": "http://ssd.jpl.nasa.gov/sbdb.cgi?sstr=3402613",
    "absolute_magnitude_h": 20.3,
    "estimated_diameter": {
        "kilometers": {
            "estimated_diameter_min": 0.2315021222,
            "estimated_diameter_max": 0.5176544822
        },
        "meters": {
            "estimated_diameter_min": 231.5021222103,
            "estimated_diameter_max": 517.6544821978
        },
        "miles": {
            "estimated_diameter_min": 0.1438487052,
            "estimated_diameter_max": 0.3216554833
        },
        "feet": {
            "estimated_diameter_min": 759.5214226325,
            "estimated_diameter_max": 1698.3415313737
        }
    },
    "is_potentially_hazardous_asteroid": true,
    "close_approach_data": [
        {
            "close_approach_date": "1917-02-14",
            "close_approach_date_full": "1917-Feb-14 18:41",
            "epoch_date_close_approach": -1668662340000,
            "relative_velocity": {
                "kilometers_per_second": "8.6221628924",
                "kilometers_per_hour": "31039.7864126977",
                "miles_per_hour": "19286.9161740454"
            },
            "miss_distance": {
                "astronomical": "1.3695633262",
                "lunar": "532.7601338918",
                "kilometers": "204883756.429635194",
                "miles": "127308862.8549619172"
            },
            "orbiting_body": "Juptr"
        },
        {
            "close_approach_date": "2001-04-24",
            "close_approach_date_full": "2001-Apr-24 16:08",
            "epoch_date_close_approach": 988128480000,
            "relative_velocity": {
                "kilometers_per_second": "9.249463424",
                "kilometers_per_hour": "33298.068326452",
                "miles_per_hour": "20690.1247331779"
            },
            "miss_distance": {
                "astronomical": "1.2029730434",
                "lunar": "467.9565138826",
                "kilometers": "179962204.960057558",
                "miles": "111823328.8455199804"
            },
            "orbiting_body": "Juptr"
        },
        {
            "close_approach_date": "2008-03-05",
            "close_approach_date_full": "2008-Mar-05 04:49",
            "epoch_date_close_approach": 1204692540000,
            "relative_velocity": {
                "kilometers_per_second": "23.2015894653",
                "kilometers_per_hour": "83525.7220749029",
                "miles_per_hour": "51899.6354748195"
            },
            "miss_distance": {
                "astronomical": "0.2896722278",
                "lunar": "112.6824966142",
                "kilometers": "43334348.277034786",
                "miles": "26926715.4109646068"
            },
            "orbiting_body": "Earth"
        }
    ],
    "orbital_data": {
        "orbit_id": "14",
        "orbit_determination_date": "2017-04-06 09:04:23",
        "first_observation_date": "2008-02-10",
        "last_observation_date": "2008-03-03",
        "data_arc_in_days": 22,
        "observations_used": 71,
        "orbit_uncertainty": "7",
        "minimum_orbit_intersection": ".0256809",
        "jupiter_tisserand_invariant": "2.662",
        "epoch_osculation": "2459000.5",
        "eccentricity": ".7437267439523595",
        "semi_major_axis": "3.082483112475162",
        "inclination": "18.74911508698879",
        "ascending_node_longitude": "126.4420263864268",
        "orbital_period": "1976.739705859975",
        "perihelion_distance": ".7899579839458751",
        "perihelion_argument": "113.292124789922",
        "aphelion_distance": "5.37500824100445",
        "perihelion_time": "2458536.795606630281",
        "mean_anomaly": "84.44894445041513",
        "mean_motion": ".1821180598198097",
        "equinox": "J2000",
        "orbit_class": {
            "orbit_class_type": "APO",
            "orbit_class_description": "Near-Earth asteroid orbits which cross the Earth’s orbit similar to that of 1862 Apollo",
            "orbit_class_range": "a (semi-major axis) > 1.0 AU; q (perihelion) < 1.017 AU"
        }
    },
    "is_sentry_object": false
}